ONEWEB-0255             
1 48973U 21060G   25215.22488903 -.00000030  00000+0 -11239-3 0  9994
2 48973  87.9040 292.1723 0002018  88.4183 271.7179 13.16596094197825
ONEWEB-0256             
1 48974U 21060H   25215.55499642 -.00000041  00000+0 -14217-3 0  9994
2 48974  87.9037 292.1174 0002120 101.0080 259.1290 13.16592799197837
ONEWEB-0257             
1 48975U 21060J   25215.28346933  .00000016  00000+0  81356-5 0  9999
2 48975  87.9045 292.1386 0002162  92.6266 267.5112 13.16595565197750
ONEWEB-0258             
1 48976U 21060K   25215.51305431  .00000106  00000+0  24345-3 0  9997
2 48976  87.9046 292.1184 0001878  96.4327 263.7017 13.16593707197793
ONEWEB-0259             
1 48977U 21060L   25215.50670925  .00000102  00000+0  23233-3 0  9991
2 48977  87.9044 292.1037 0002083  96.1296 264.0072 13.16595952197823
ONEWEB-0260             
1 48978U 21060M   25215.49800136  .00000051  00000+0  10104-3 0  9995
2 48978  87.9038 292.1307 0002510 102.6870 257.4541 13.16592950197803
ONEWEB-0261             
1 48979U 21060N   25215.23993496 -.00000030  00000+0 -11281-3 0  9996
2 48979  87.9038 292.1833 0002363  90.0885 270.0516 13.16594316197823
ONEWEB-0262             
1 48980U 21060P   25215.29615439 -.00000029  00000+0 -10896-3 0  9991
2 48980  87.9046 292.1345 0001824  88.6183 271.5157 13.16593470197790
ONEWEB-0263             
1 48981U 21060Q   25215.55581142 -.00000072  00000+0 -22266-3 0  9996
2 48981  87.9042 292.1069 0002151  85.0196 275.1180 13.16594487197794
ONEWEB-0264             
1 48982U 21060R   25215.51700457  .00000038  00000+0  66864-4 0  9998
2 48982  87.9042 292.1197 0002067  93.9942 266.1425 13.16592775197790
ONEWEB-0266             
1 48984U 21060T   25215.23439712 -.00000049  00000+0 -16140-3 0  9997
2 48984  87.9044 292.1505 0001845  97.9427 262.1913 13.16593695197747
ONEWEB-0267             
1 48985U 21060U   25215.24547960 -.00000061  00000+0 -19277-3 0  9992
2 48985  87.9042 292.1505 0002236  92.8511 267.2876 13.16593522197753
ONEWEB-0268             
1 48986U 21060V   25215.28980338  .00000027  00000+0  37612-4 0  9991
2 48986  87.9045 292.1478 0002142  97.4047 262.7327 13.16596466198029
ONEWEB-0269             
1 48987U 21060W   25215.27079947 -.00000001  00000+0 -35645-4 0  9994
2 48987  87.9041 292.1849 0002040 100.3762 259.7599 13.16596146197798
ONEWEB-0270             
1 48988U 21060X   25215.51620523  .00000081  00000+0  17853-3 0  9990
2 48988  87.9042 292.1056 0002093  84.2806 275.8564 13.16596771197860
ONEWEB-0271             
1 48989U 21060Y   25215.50355288  .00000075  00000+0  16300-3 0  9992
2 48989  87.9043 292.0911 0002209  92.4817 267.6567 13.16593774197865
ONEWEB-0272             
1 48990U 21060Z   25215.60170241  .00000007  00000+0 -15514-4 0  9992
2 48990  87.9037 292.1007 0002317  94.3187 265.8209 13.16599336197827
