[{"OBJECT_NAME":"ONEWEB-0255","OBJECT_ID":"2021-060G","EPOCH":"2025-08-03T05:23:50.412192","MEAN_MOTION":13.16596094,"ECCENTRICITY":0.0002018,"INCLINATION":87.904,"RA_OF_ASC_NODE":292.1723,"ARG_OF_PERICENTER":88.4183,"MEAN_ANOMALY":271.7179,"EPHEMERIS_TYPE":0,"CLASSIFICATION_TYPE":"U","NORAD_CAT_ID":48973,"ELEMENT_SET_NO":999,"REV_AT_EPOCH":19782,"BSTAR":-0.00011239,"MEAN_MOTION_DOT":-3.0e-7,"MEAN_MOTION_DDOT":0},{"OBJECT_NAME":"ONEWEB-0256","OBJECT_ID":"2021-060H","EPOCH":"2025-08-03T13:19:11.690688","MEAN_MOTION":13.16592799,"ECCENTRICITY":0.000212,"INCLINATION":87.9037,"RA_OF_ASC_NODE":292.1174,"ARG_OF_PERICENTER":101.008,"MEAN_ANOMALY":259.129,"EPHEMERIS_TYPE":0,"CLASSIFICATION_TYPE":"U","NORAD_CAT_ID":48974,"ELEMENT_SET_NO":999,"REV_AT_EPOCH":19783,"BSTAR":-0.00014217,"MEAN_MOTION_DOT":-4.1e-7,"MEAN_MOTION_DDOT":0},{"OBJECT_NAME":"ONEWEB-0257","OBJECT_ID":"2021-060J","EPOCH":"2025-08-03T06:48:11.750112","MEAN_MOTION":13.16595565,"ECCENTRICITY":0.0002162,"INCLINATION":87.9045,"RA_OF_ASC_NODE":292.1386,"ARG_OF_PERICENTER":92.6266,"MEAN_ANOMALY":267.5112,"EPHEMERIS_TYPE":0,"CLASSIFICATION_TYPE":"U","NORAD_CAT_ID":48975,"ELEMENT_SET_NO":999,"REV_AT_EPOCH":19775,"BSTAR":8.1356e-6,"MEAN_MOTION_DOT":1.6e-7,"MEAN_MOTION_DDOT":0},{"OBJECT_NAME":"ONEWEB-0258","OBJECT_ID":"2021-060K","EPOCH":"2025-08-03T12:18:47.892384","MEAN_MOTION":13.16593707,"ECCENTRICITY":0.0001878,"INCLINATION":87.9046,"RA_OF_ASC_NODE":292.1184,"ARG_OF_PERICENTER":96.4327,"MEAN_ANOMALY":263.7017,"EPHEMERIS_TYPE":0,"CLASSIFICATION_TYPE":"U","NORAD_CAT_ID":48976,"ELEMENT_SET_NO":999,"REV_AT_EPOCH":19779,"BSTAR":0.00024345,"MEAN_MOTION_DOT":1.06e-6,"MEAN_MOTION_DDOT":0},{"OBJECT_NAME":"ONEWEB-0259","OBJECT_ID":"2021-060L","EPOCH":"2025-08-03T12:09:39.679200","MEAN_MOTION":13.16595952,"ECCENTRICITY":0.0002083,"INCLINATION":87.9044,"RA_OF_ASC_NODE":292.1037,"ARG_OF_PERICENTER":96.1296,"MEAN_ANOMALY":264.0072,"EPHEMERIS_TYPE":0,"CLASSIFICATION_TYPE":"U","NORAD_CAT_ID":48977,"ELEMENT_SET_NO":999,"REV_AT_EPOCH":19782,"BSTAR":0.00023233,"MEAN_MOTION_DOT":1.02e-6,"MEAN_MOTION_DDOT":0},{"OBJECT_NAME":"ONEWEB-0260","OBJECT_ID":"2021-060M","EPOCH":"2025-08-03T11:57:07.317504","MEAN_MOTION":13.1659295,"ECCENTRICITY":0.000251,"INCLINATION":87.9038,"RA_OF_ASC_NODE":292.1307,"ARG_OF_PERICENTER":102.687,"MEAN_ANOMALY":257.4541,"EPHEMERIS_TYPE":0,"CLASSIFICATION_TYPE":"U","NORAD_CAT_ID":48978,"ELEMENT_SET_NO":999,"REV_AT_EPOCH":19780,"BSTAR":0.00010104,"MEAN_MOTION_DOT":5.1e-7,"MEAN_MOTION_DDOT":0},{"OBJECT_NAME":"ONEWEB-0261","OBJECT_ID":"2021-060N","EPOCH":"2025-08-03T05:45:30.380544","MEAN_MOTION":13.16594316,"ECCENTRICITY":0.0002363,"INCLINATION":87.9038,"RA_OF_ASC_NODE":292.1833,"ARG_OF_PERICENTER":90.0885,"MEAN_ANOMALY":270.0516,"EPHEMERIS_TYPE":0,"CLASSIFICATION_TYPE":"U","NORAD_CAT_ID":48979,"ELEMENT_SET_NO":999,"REV_AT_EPOCH":19782,"BSTAR":-0.00011281,"MEAN_MOTION_DOT":-3.0e-7,"MEAN_MOTION_DDOT":0},{"OBJECT_NAME":"ONEWEB-0262","OBJECT_ID":"2021-060P","EPOCH":"2025-08-03T07:06:27.739296","MEAN_MOTION":13.1659347,"ECCENTRICITY":0.0001824,"INCLINATION":87.9046,"RA_OF_ASC_NODE":292.1345,"ARG_OF_PERICENTER":88.6183,"MEAN_ANOMALY":271.5157,"EPHEMERIS_TYPE":0,"CLASSIFICATION_TYPE":"U","NORAD_CAT_ID":48980,"ELEMENT_SET_NO":999,"REV_AT_EPOCH":19779,"BSTAR":-0.00010896,"MEAN_MOTION_DOT":-2.9e-7,"MEAN_MOTION_DDOT":0},{"OBJECT_NAME":"ONEWEB-0263","OBJECT_ID":"2021-060Q","EPOCH":"2025-08-03T13:20:22.106688","MEAN_MOTION":13.16594487,"ECCENTRICITY":0.0002151,"INCLINATION":87.9042,"RA_OF_ASC_NODE":292.1069,"ARG_OF_PERICENTER":85.0196,"MEAN_ANOMALY":275.118,"EPHEMERIS_TYPE":0,"CLASSIFICATION_TYPE":"U","NORAD_CAT_ID":48981,"ELEMENT_SET_NO":999,"REV_AT_EPOCH":19779,"BSTAR":-0.00022266,"MEAN_MOTION_DOT":-7.2e-7,"MEAN_MOTION_DDOT":0},{"OBJECT_NAME":"ONEWEB-0264","OBJECT_ID":"2021-060R","EPOCH":"2025-08-03T12:24:29.194848","MEAN_MOTION":13.16592775,"ECCENTRICITY":0.0002067,"INCLINATION":87.9042,"RA_OF_ASC_NODE":292.1197,"ARG_OF_PERICENTER":93.9942,"MEAN_ANOMALY":266.1425,"EPHEMERIS_TYPE":0,"CLASSIFICATION_TYPE":"U","NORAD_CAT_ID":48982,"ELEMENT_SET_NO":999,"REV_AT_EPOCH":19779,"BSTAR":6.6864e-5,"MEAN_MOTION_DOT":3.8e-7,"MEAN_MOTION_DDOT":0},{"OBJECT_NAME":"ONEWEB-0266","OBJECT_ID":"2021-060T","EPOCH":"2025-08-03T05:37:31.911168","MEAN_MOTION":13.16593695,"ECCENTRICITY":0.0001845,"INCLINATION":87.9044,"RA_OF_ASC_NODE":292.1505,"ARG_OF_PERICENTER":97.9427,"MEAN_ANOMALY":262.1913,"EPHEMERIS_TYPE":0,"CLASSIFICATION_TYPE":"U","NORAD_CAT_ID":48984,"ELEMENT_SET_NO":999,"REV_AT_EPOCH":19774,"BSTAR":-0.0001614,"MEAN_MOTION_DOT":-4.9e-7,"MEAN_MOTION_DDOT":0},{"OBJECT_NAME":"ONEWEB-0267","OBJECT_ID":"2021-060U","EPOCH":"2025-08-03T05:53:29.437440","MEAN_MOTION":13.16593522,"ECCENTRICITY":0.0002236,"INCLINATION":87.9042,"RA_OF_ASC_NODE":292.1505,"ARG_OF_PERICENTER":92.8511,"MEAN_ANOMALY":267.2876,"EPHEMERIS_TYPE":0,"CLASSIFICATION_TYPE":"U","NORAD_CAT_ID":48985,"ELEMENT_SET_NO":999,"REV_AT_EPOCH":19775,"BSTAR":-0.00019277,"MEAN_MOTION_DOT":-6.1e-7,"MEAN_MOTION_DDOT":0},{"OBJECT_NAME":"ONEWEB-0268","OBJECT_ID":"2021-060V","EPOCH":"2025-08-03T06:57:19.012032","MEAN_MOTION":13.16596466,"ECCENTRICITY":0.0002142,"INCLINATION":87.9045,"RA_OF_ASC_NODE":292.1478,"ARG_OF_PERICENTER":97.4047,"MEAN_ANOMALY":262.7327,"EPHEMERIS_TYPE":0,"CLASSIFICATION_TYPE":"U","NORAD_CAT_ID":48986,"ELEMENT_SET_NO":999,"REV_AT_EPOCH":19802,"BSTAR":3.7612e-5,"MEAN_MOTION_DOT":2.7e-7,"MEAN_MOTION_DDOT":0},{"OBJECT_NAME":"ONEWEB-0269","OBJECT_ID":"2021-060W","EPOCH":"2025-08-03T06:29:57.074208","MEAN_MOTION":13.16596146,"ECCENTRICITY":0.000204,"INCLINATION":87.9041,"RA_OF_ASC_NODE":292.1849,"ARG_OF_PERICENTER":100.3762,"MEAN_ANOMALY":259.7599,"EPHEMERIS_TYPE":0,"CLASSIFICATION_TYPE":"U","NORAD_CAT_ID":48987,"ELEMENT_SET_NO":999,"REV_AT_EPOCH":19779,"BSTAR":-3.5645e-5,"MEAN_MOTION_DOT":-1.0e-8,"MEAN_MOTION_DDOT":0},{"OBJECT_NAME":"ONEWEB-0270","OBJECT_ID":"2021-060X","EPOCH":"2025-08-03T12:23:20.131872","MEAN_MOTION":13.16596771,"ECCENTRICITY":0.0002093,"INCLINATION":87.9042,"RA_OF_ASC_NODE":292.1056,"ARG_OF_PERICENTER":84.2806,"MEAN_ANOMALY":275.8564,"EPHEMERIS_TYPE":0,"CLASSIFICATION_TYPE":"U","NORAD_CAT_ID":48988,"ELEMENT_SET_NO":999,"REV_AT_EPOCH":19786,"BSTAR":0.00017853,"MEAN_MOTION_DOT":8.1e-7,"MEAN_MOTION_DDOT":0},{"OBJECT_NAME":"ONEWEB-0271","OBJECT_ID":"2021-060Y","EPOCH":"2025-08-03T12:05:06.968832","MEAN_MOTION":13.16593774,"ECCENTRICITY":0.0002209,"INCLINATION":87.9043,"RA_OF_ASC_NODE":292.0911,"ARG_OF_PERICENTER":92.4817,"MEAN_ANOMALY":267.6567,"EPHEMERIS_TYPE":0,"CLASSIFICATION_TYPE":"U","NORAD_CAT_ID":48989,"ELEMENT_SET_NO":999,"REV_AT_EPOCH":19786,"BSTAR":0.000163,"MEAN_MOTION_DOT":7.5e-7,"MEAN_MOTION_DDOT":0},{"OBJECT_NAME":"ONEWEB-0272","OBJECT_ID":"2021-060Z","EPOCH":"2025-08-03T14:26:27.088224","MEAN_MOTION":13.16599336,"ECCENTRICITY":0.0002317,"INCLINATION":87.9037,"RA_OF_ASC_NODE":292.1007,"ARG_OF_PERICENTER":94.3187,"MEAN_ANOMALY":265.8209,"EPHEMERIS_TYPE":0,"CLASSIFICATION_TYPE":"U","NORAD_CAT_ID":48990,"ELEMENT_SET_NO":999,"REV_AT_EPOCH":19782,"BSTAR":-1.5514e-5,"MEAN_MOTION_DOT":7.0e-8,"MEAN_MOTION_DDOT":0}]
